QIANFAN-25              
1 61558U 24185G   25312.84391094  .00000809  00000+0  48669-3 0  9998
2 61558  88.9791  82.0182 0010832  58.3579 301.8658 14.05859796 64747
QIANFAN-26              
1 61559U 24185H   25312.83323941  .00000390  00000+0  37754-3 0  9992
2 61559  88.9790  83.4035 0007542 110.9062 249.2913 13.77782660 64006
QIANFAN-27              
1 61560U 24185J   25312.81672581  .00001155  00000+0  46658-3 0  9992
2 61560  88.9786  80.9139 0009269  51.5771 308.6254 14.27265403 65326
QIANFAN-28              
1 61561U 24185K   25312.81507919  .00001570  00000+0  62836-3 0  9992
2 61561  88.9804  80.9145 0008488  52.5532 307.6434 14.27923525 65339
QIANFAN-29              
1 61562U 24185L   25312.81812510  .00000263  00000+0  38915-3 0  9998
2 61562  88.9765  84.8093 0011281 142.9697 217.2235 13.50993037 63212
QIANFAN-30              
1 61563U 24185M   25312.84143973  .00000267  00000+0  40133-3 0  9991
2 61563  88.9785  84.3193 0009006 128.4994 231.6966 13.49969753 63499
QIANFAN-31              
1 61564U 24185N   25312.78776777  .00000310  00000+0  41209-3 0  9993
2 61564  88.9770  84.1806 0008690 124.3960 235.8018 13.57946398 63559
QIANFAN-32              
1 61565U 24185P   25312.82859041  .00000169  00000+0  24364-3 0  9990
2 61565  88.9828  84.4444 0010304 153.2357 206.9328 13.50719115 63462
